[{"OBJECT_NAME":"STARLINK-3791","OBJECT_ID":"2022-041J","EPOCH":"2024-07-18T05:18:04.349952","MEAN_MOTION":15.08823636,"ECCENTRICITY":0.0001545,"INCLINATION":53.2158,"RA_OF_ASC_NODE":280.2466,"ARG_OF_PERICENTER":85.5006,"MEAN_ANOMALY":274.6163,"EPHEMERIS_TYPE":0,"CLASSIFICATION_TYPE":"U","NORAD_CAT_ID":52269,"ELEMENT_SET_NO":999,"REV_AT_EPOCH":12508,"BSTAR":-0.00011542,"MEAN_MOTION_DOT":-2.124e-5,"MEAN_MOTION_DDOT":0},{"OBJECT_NAME":"STARLINK-3804","OBJECT_ID":"2022-041K","EPOCH":"2024-07-17T22:45:55.871712","MEAN_MOTION":15.08838285,"ECCENTRICITY":0.0001102,"INCLINATION":53.215,"RA_OF_ASC_NODE":281.4938,"ARG_OF_PERICENTER":70.1711,"MEAN_ANOMALY":289.94,"EPHEMERIS_TYPE":0,"CLASSIFICATION_TYPE":"U","NORAD_CAT_ID":52270,"ELEMENT_SET_NO":999,"REV_AT_EPOCH":12382,"BSTAR":7.2574e-5,"MEAN_MOTION_DOT":8.67e-6,"MEAN_MOTION_DDOT":0},{"OBJECT_NAME":"STARLINK-3788","OBJECT_ID":"2022-041L","EPOCH":"2024-07-18T05:12:47.220480","MEAN_MOTION":15.0883182,"ECCENTRICITY":0.000149,"INCLINATION":53.2154,"RA_OF_ASC_NODE":280.2609,"ARG_OF_PERICENTER":87.1768,"MEAN_ANOMALY":272.9395,"EPHEMERIS_TYPE":0,"CLASSIFICATION_TYPE":"U","NORAD_CAT_ID":52271,"ELEMENT_SET_NO":999,"REV_AT_EPOCH":12508,"BSTAR":-9.5907e-6,"MEAN_MOTION_DOT":-4.41e-6,"MEAN_MOTION_DDOT":0},{"OBJECT_NAME":"STARLINK-3781","OBJECT_ID":"2022-041M","EPOCH":"2024-07-18T05:03:33.897600","MEAN_MOTION":15.08830556,"ECCENTRICITY":0.000135,"INCLINATION":53.2163,"RA_OF_ASC_NODE":280.3304,"ARG_OF_PERICENTER":89.827,"MEAN_ANOMALY":270.2876,"EPHEMERIS_TYPE":0,"CLASSIFICATION_TYPE":"U","NORAD_CAT_ID":52272,"ELEMENT_SET_NO":999,"REV_AT_EPOCH":12509,"BSTAR":3.3619e-5,"MEAN_MOTION_DOT":2.47e-6,"MEAN_MOTION_DDOT":0},{"OBJECT_NAME":"STARLINK-3782","OBJECT_ID":"2022-041N","EPOCH":"2024-07-18T04:22:33.180672","MEAN_MOTION":15.08841154,"ECCENTRICITY":0.0001628,"INCLINATION":53.2165,"RA_OF_ASC_NODE":270.8051,"ARG_OF_PERICENTER":61.592,"MEAN_ANOMALY":298.5236,"EPHEMERIS_TYPE":0,"CLASSIFICATION_TYPE":"U","NORAD_CAT_ID":52273,"ELEMENT_SET_NO":999,"REV_AT_EPOCH":12521,"BSTAR":0.00023638,"MEAN_MOTION_DOT":3.476e-5,"MEAN_MOTION_DDOT":0},{"OBJECT_NAME":"STARLINK-3790","OBJECT_ID":"2022-041P","EPOCH":"2024-07-17T22:30:02.102976","MEAN_MOTION":15.08833302,"ECCENTRICITY":0.0001292,"INCLINATION":53.2175,"RA_OF_ASC_NODE":281.517,"ARG_OF_PERICENTER":79.5209,"MEAN_ANOMALY":280.5929,"EPHEMERIS_TYPE":0,"CLASSIFICATION_TYPE":"U","NORAD_CAT_ID":52274,"ELEMENT_SET_NO":999,"REV_AT_EPOCH":12382,"BSTAR":4.8125e-5,"MEAN_MOTION_DOT":4.78e-6,"MEAN_MOTION_DDOT":0},{"OBJECT_NAME":"STARLINK-3784","OBJECT_ID":"2022-041Q","EPOCH":"2024-07-17T13:08:19.230720","MEAN_MOTION":15.08837853,"ECCENTRICITY":0.0001176,"INCLINATION":53.2153,"RA_OF_ASC_NODE":283.2678,"ARG_OF_PERICENTER":78.8446,"MEAN_ANOMALY":281.2678,"EPHEMERIS_TYPE":0,"CLASSIFICATION_TYPE":"U","NORAD_CAT_ID":52275,"ELEMENT_SET_NO":999,"REV_AT_EPOCH":12497,"BSTAR":0.0020366,"MEAN_MOTION_DOT":0.00032271,"MEAN_MOTION_DDOT":0},{"OBJECT_NAME":"STARLINK-3778","OBJECT_ID":"2022-041R","EPOCH":"2024-07-17T22:24:44.061984","MEAN_MOTION":15.08842492,"ECCENTRICITY":0.0001242,"INCLINATION":53.2171,"RA_OF_ASC_NODE":281.5281,"ARG_OF_PERICENTER":70.5138,"MEAN_ANOMALY":289.5988,"EPHEMERIS_TYPE":0,"CLASSIFICATION_TYPE":"U","NORAD_CAT_ID":52276,"ELEMENT_SET_NO":999,"REV_AT_EPOCH":12504,"BSTAR":0.00013823,"MEAN_MOTION_DOT":1.913e-5,"MEAN_MOTION_DDOT":0},{"OBJECT_NAME":"STARLINK-3780","OBJECT_ID":"2022-041T","EPOCH":"2024-07-17T22:19:25.917312","MEAN_MOTION":15.08851894,"ECCENTRICITY":0.0001109,"INCLINATION":53.2166,"RA_OF_ASC_NODE":281.5454,"ARG_OF_PERICENTER":78.1416,"MEAN_ANOMALY":281.9701,"EPHEMERIS_TYPE":0,"CLASSIFICATION_TYPE":"U","NORAD_CAT_ID":52278,"ELEMENT_SET_NO":999,"REV_AT_EPOCH":12504,"BSTAR":0.00052738,"MEAN_MOTION_DOT":8.118e-5,"MEAN_MOTION_DDOT":0},{"OBJECT_NAME":"STARLINK-3764","OBJECT_ID":"2022-041V","EPOCH":"2024-07-17T12:31:12.681984","MEAN_MOTION":15.08846683,"ECCENTRICITY":0.0001413,"INCLINATION":53.2166,"RA_OF_ASC_NODE":283.3827,"ARG_OF_PERICENTER":87.3217,"MEAN_ANOMALY":272.7937,"EPHEMERIS_TYPE":0,"CLASSIFICATION_TYPE":"U","NORAD_CAT_ID":52280,"ELEMENT_SET_NO":999,"REV_AT_EPOCH":12498,"BSTAR":0.00024905,"MEAN_MOTION_DOT":3.679e-5,"MEAN_MOTION_DDOT":0},{"OBJECT_NAME":"STARLINK-3779","OBJECT_ID":"2022-041W","EPOCH":"2024-07-17T22:26:06.274176","MEAN_MOTION":15.08854534,"ECCENTRICITY":0.0001198,"INCLINATION":53.2163,"RA_OF_ASC_NODE":281.5224,"ARG_OF_PERICENTER":73.2903,"MEAN_ANOMALY":286.8221,"EPHEMERIS_TYPE":0,"CLASSIFICATION_TYPE":"U","NORAD_CAT_ID":52281,"ELEMENT_SET_NO":999,"REV_AT_EPOCH":12504,"BSTAR":0.00045664,"MEAN_MOTION_DOT":6.99e-5,"MEAN_MOTION_DDOT":0},{"OBJECT_NAME":"STARLINK-3783","OBJECT_ID":"2022-041X","EPOCH":"2024-07-17T12:21:56.913120","MEAN_MOTION":15.08838078,"ECCENTRICITY":0.000112,"INCLINATION":53.2166,"RA_OF_ASC_NODE":273.4105,"ARG_OF_PERICENTER":85.9481,"MEAN_ANOMALY":274.1639,"EPHEMERIS_TYPE":0,"CLASSIFICATION_TYPE":"U","NORAD_CAT_ID":52282,"ELEMENT_SET_NO":999,"REV_AT_EPOCH":12511,"BSTAR":1.8621e-5,"MEAN_MOTION_DOT":9.0e-8,"MEAN_MOTION_DDOT":0},{"OBJECT_NAME":"STARLINK-3789","OBJECT_ID":"2022-041Y","EPOCH":"2024-07-17T12:41:49.069824","MEAN_MOTION":15.0883708,"ECCENTRICITY":0.0001352,"INCLINATION":53.217,"RA_OF_ASC_NODE":283.3498,"ARG_OF_PERICENTER":99.0152,"MEAN_ANOMALY":261.0994,"EPHEMERIS_TYPE":0,"CLASSIFICATION_TYPE":"U","NORAD_CAT_ID":52283,"ELEMENT_SET_NO":999,"REV_AT_EPOCH":12498,"BSTAR":0.00010138,"MEAN_MOTION_DOT":1.326e-5,"MEAN_MOTION_DDOT":0},{"OBJECT_NAME":"STARLINK-3561","OBJECT_ID":"2022-041Z","EPOCH":"2024-07-17T12:11:21.529248","MEAN_MOTION":15.08833845,"ECCENTRICITY":0.0001335,"INCLINATION":53.2168,"RA_OF_ASC_NODE":273.4422,"ARG_OF_PERICENTER":80.494,"MEAN_ANOMALY":279.6203,"EPHEMERIS_TYPE":0,"CLASSIFICATION_TYPE":"U","NORAD_CAT_ID":52284,"ELEMENT_SET_NO":999,"REV_AT_EPOCH":12389,"BSTAR":7.9904e-5,"MEAN_MOTION_DOT":9.84e-6,"MEAN_MOTION_DDOT":0},{"OBJECT_NAME":"STARLINK-3775","OBJECT_ID":"2022-041AA","EPOCH":"2024-07-17T12:36:31.549824","MEAN_MOTION":15.08835847,"ECCENTRICITY":0.000119,"INCLINATION":53.2175,"RA_OF_ASC_NODE":283.3629,"ARG_OF_PERICENTER":77.5887,"MEAN_ANOMALY":282.5238,"EPHEMERIS_TYPE":0,"CLASSIFICATION_TYPE":"U","NORAD_CAT_ID":52285,"ELEMENT_SET_NO":999,"REV_AT_EPOCH":12499,"BSTAR":0.00015722,"MEAN_MOTION_DOT":2.215e-5,"MEAN_MOTION_DDOT":0},{"OBJECT_NAME":"STARLINK-3802","OBJECT_ID":"2022-041AB","EPOCH":"2024-07-17T12:00:44.452800","MEAN_MOTION":15.08841796,"ECCENTRICITY":0.000135,"INCLINATION":53.2177,"RA_OF_ASC_NODE":273.4779,"ARG_OF_PERICENTER":89.8782,"MEAN_ANOMALY":270.2364,"EPHEMERIS_TYPE":0,"CLASSIFICATION_TYPE":"U","NORAD_CAT_ID":52286,"ELEMENT_SET_NO":999,"REV_AT_EPOCH":12511,"BSTAR":7.2494e-5,"MEAN_MOTION_DOT":8.66e-6,"MEAN_MOTION_DDOT":0},{"OBJECT_NAME":"STARLINK-3822","OBJECT_ID":"2022-041AC","EPOCH":"2024-07-17T12:25:55.661376","MEAN_MOTION":15.08827457,"ECCENTRICITY":9.76e-5,"INCLINATION":53.2168,"RA_OF_ASC_NODE":283.4036,"ARG_OF_PERICENTER":69.942,"MEAN_ANOMALY":290.1677,"EPHEMERIS_TYPE":0,"CLASSIFICATION_TYPE":"U","NORAD_CAT_ID":52287,"ELEMENT_SET_NO":999,"REV_AT_EPOCH":12376,"BSTAR":8.933e-6,"MEAN_MOTION_DOT":-1.46e-6,"MEAN_MOTION_DDOT":0},{"OBJECT_NAME":"STARLINK-3776","OBJECT_ID":"2022-041AD","EPOCH":"2024-07-18T05:24:41.590368","MEAN_MOTION":15.08836328,"ECCENTRICITY":0.0001374,"INCLINATION":53.2169,"RA_OF_ASC_NODE":270.2269,"ARG_OF_PERICENTER":87.1896,"MEAN_ANOMALY":272.9253,"EPHEMERIS_TYPE":0,"CLASSIFICATION_TYPE":"U","NORAD_CAT_ID":52288,"ELEMENT_SET_NO":999,"REV_AT_EPOCH":12522,"BSTAR":2.6488e-5,"MEAN_MOTION_DOT":1.34e-6,"MEAN_MOTION_DDOT":0},{"OBJECT_NAME":"STARLINK-3751","OBJECT_ID":"2022-041AE","EPOCH":"2024-07-17T12:16:39.317088","MEAN_MOTION":15.08833795,"ECCENTRICITY":0.0001513,"INCLINATION":53.2172,"RA_OF_ASC_NODE":273.4299,"ARG_OF_PERICENTER":93.3362,"MEAN_ANOMALY":266.7803,"EPHEMERIS_TYPE":0,"CLASSIFICATION_TYPE":"U","NORAD_CAT_ID":52289,"ELEMENT_SET_NO":999,"REV_AT_EPOCH":12389,"BSTAR":7.8044e-5,"MEAN_MOTION_DOT":9.54e-6,"MEAN_MOTION_DDOT":0},{"OBJECT_NAME":"STARLINK-3772","OBJECT_ID":"2022-041AF","EPOCH":"2024-07-17T11:40:55.229376","MEAN_MOTION":15.08836945,"ECCENTRICITY":0.0001136,"INCLINATION":53.2183,"RA_OF_ASC_NODE":273.5376,"ARG_OF_PERICENTER":103.1809,"MEAN_ANOMALY":256.931,"EPHEMERIS_TYPE":0,"CLASSIFICATION_TYPE":"U","NORAD_CAT_ID":52290,"ELEMENT_SET_NO":999,"REV_AT_EPOCH":12389,"BSTAR":0.00017499,"MEAN_MOTION_DOT":2.498e-5,"MEAN_MOTION_DDOT":0},{"OBJECT_NAME":"STARLINK-3773","OBJECT_ID":"2022-041AG","EPOCH":"2024-07-17T11:26:32.521920","MEAN_MOTION":15.16625195,"ECCENTRICITY":1.55e-5,"INCLINATION":53.2165,"RA_OF_ASC_NODE":270.5154,"ARG_OF_PERICENTER":86.989,"MEAN_ANOMALY":273.1124,"EPHEMERIS_TYPE":0,"CLASSIFICATION_TYPE":"U","NORAD_CAT_ID":52291,"ELEMENT_SET_NO":999,"REV_AT_EPOCH":12393,"BSTAR":0.0025221,"MEAN_MOTION_DOT":0.00049935,"MEAN_MOTION_DDOT":0},{"OBJECT_NAME":"STARLINK-3753","OBJECT_ID":"2022-041AH","EPOCH":"2024-07-18T05:03:29.332224","MEAN_MOTION":15.08839643,"ECCENTRICITY":0.0001375,"INCLINATION":53.2162,"RA_OF_ASC_NODE":270.2914,"ARG_OF_PERICENTER":92.764,"MEAN_ANOMALY":267.3509,"EPHEMERIS_TYPE":0,"CLASSIFICATION_TYPE":"U","NORAD_CAT_ID":52292,"ELEMENT_SET_NO":999,"REV_AT_EPOCH":12522,"BSTAR":5.1037e-5,"MEAN_MOTION_DOT":5.24e-6,"MEAN_MOTION_DDOT":0},{"OBJECT_NAME":"STARLINK-3771","OBJECT_ID":"2022-041AJ","EPOCH":"2024-07-18T03:45:22.886496","MEAN_MOTION":15.08838928,"ECCENTRICITY":0.0001558,"INCLINATION":53.2169,"RA_OF_ASC_NODE":270.5493,"ARG_OF_PERICENTER":81.3222,"MEAN_ANOMALY":278.7947,"EPHEMERIS_TYPE":0,"CLASSIFICATION_TYPE":"U","NORAD_CAT_ID":52293,"ELEMENT_SET_NO":999,"REV_AT_EPOCH":12521,"BSTAR":0.00010194,"MEAN_MOTION_DOT":1.335e-5,"MEAN_MOTION_DDOT":0}]
